[{"OBJECT_NAME":"SKYSAT-B","OBJECT_ID":"2014-037D","EPOCH":"2026-03-09T07:49:26.226336","MEAN_MOTION":14.87724142,"ECCENTRICITY":0.00043348,"INCLINATION":98.3727,"RA_OF_ASC_NODE":21.6872,"ARG_OF_PERICENTER":234.8442,"MEAN_ANOMALY":125.2367,"EPHEMERIS_TYPE":0,"CLASSIFICATION_TYPE":"U","NORAD_CAT_ID":40072,"ELEMENT_SET_NO":999,"REV_AT_EPOCH":63111,"BSTAR":0.00024354953,"MEAN_MOTION_DOT":2.159e-5,"MEAN_MOTION_DDOT":0},{"OBJECT_NAME":"SL-14 R\/B","OBJECT_ID":"1986-055B","EPOCH":"2026-03-09T16:18:40.903776","MEAN_MOTION":14.85642641,"ECCENTRICITY":0.00181921,"INCLINATION":82.5202,"RA_OF_ASC_NODE":126.6837,"ARG_OF_PERICENTER":336.5476,"MEAN_ANOMALY":145.9532,"EPHEMERIS_TYPE":0,"CLASSIFICATION_TYPE":"U","NORAD_CAT_ID":16882,"ELEMENT_SET_NO":999,"REV_AT_EPOCH":11936,"BSTAR":5.7455179e-5,"MEAN_MOTION_DOT":5.23e-6,"MEAN_MOTION_DDOT":0}]
